[{"OBJECT_NAME":"D-STAR ONE (SPARROW)","OBJECT_ID":"2018-111F","EPOCH":"2026-03-09T17:46:18.675552","MEAN_MOTION":15.54846146,"ECCENTRICITY":0.00041297,"INCLINATION":97.6111,"RA_OF_ASC_NODE":1.8771,"ARG_OF_PERICENTER":38.9805,"MEAN_ANOMALY":321.1745,"EPHEMERIS_TYPE":0,"CLASSIFICATION_TYPE":"U","NORAD_CAT_ID":43881,"ELEMENT_SET_NO":999,"REV_AT_EPOCH":39583,"BSTAR":0.0010829564,"MEAN_MOTION_DOT":0.00072664,"MEAN_MOTION_DDOT":0},{"OBJECT_NAME":"STARLINK-1433","OBJECT_ID":"2020-035BG","EPOCH":"2026-03-09T22:30:41.376096","MEAN_MOTION":15.54765909,"ECCENTRICITY":0.0007594,"INCLINATION":53.0512,"RA_OF_ASC_NODE":19.8564,"ARG_OF_PERICENTER":101.9471,"MEAN_ANOMALY":258.2391,"EPHEMERIS_TYPE":0,"CLASSIFICATION_TYPE":"U","NORAD_CAT_ID":45711,"ELEMENT_SET_NO":999,"REV_AT_EPOCH":31940,"BSTAR":0.00092423501,"MEAN_MOTION_DOT":0.00062622,"MEAN_MOTION_DDOT":0}]
